start=new Date('2023-03-31T00:00:00.000Z').valueOf();
sats=[{"LAUNCH_DATE":"2022-01-19","APOAPSIS":"540.618","NORAD_CAT_ID":"51139","SEMIMAJOR_AXIS":"6917.872","RA_OF_ASC_NODE":"86.4253","MEAN_MOTION":"15.08842598","OBJECT_TYPE":"PAYLOAD","GP_ID":"229184290","MEAN_MOTION_DDOT":"0.0000000000000","TLE_LINE2":"2 51139  53.2164  86.4253 0001273  86.1480 273.9658 15.08842598 66406","EPHEMERIS_TYPE":"0","COUNTRY_CODE":"US","REF_FRAME":"TEME","EPOCH":"2023-03-30T08:49:41.854656","DECAY_DATE":null,"FILE":"3875726","CLASSIFICATION_TYPE":"U","PERIOD":"95.437","OBJECT_ID":"2022-005AM","TIME_SYSTEM":"UTC","OBJECT_NAME":"STARLINK-3172","CENTER_NAME":"EARTH","REV_AT_EPOCH":"6640","ARG_OF_PERICENTER":"86.1480","ELEMENT_SET_NO":"999","TLE_LINE1":"1 51139U 22005AM  23089.36784554  .00001147  00000-0  90159-4 0  9993","BSTAR":"0.00009015900000","MEAN_ANOMALY":"273.9658","PERIAPSIS":"538.857","SITE":"AFETR","INCLINATION":"53.2164","MEAN_ELEMENT_THEORY":"SGP4","MEAN_MOTION_DOT":"0.00001147","RCS_SIZE":"LARGE","ECCENTRICITY":"0.00012730"},{"MEAN_ANOMALY":"266.5003","PERIAPSIS":"538.704","TLE_LINE1":"1 51140U 22005AN  23089.90880663  .00001404  00000-0  10631-3 0  9995","ELEMENT_SET_NO":"999","ARG_OF_PERICENTER":"93.6162","REV_AT_EPOCH":"6648","BSTAR":"0.00010631000000","RCS_SIZE":"LARGE","MEAN_MOTION_DOT":"0.00001404","ECCENTRICITY":"0.00015100","INCLINATION":"53.2170","SITE":"AFETR","MEAN_ELEMENT_THEORY":"SGP4","OBJECT_TYPE":"PAYLOAD","RA_OF_ASC_NODE":"83.9977","MEAN_MOTION":"15.08838823","MEAN_MOTION_DDOT":"0.0000000000000","GP_ID":"229184041","SEMIMAJOR_AXIS":"6917.884","NORAD_CAT_ID":"51140","APOAPSIS":"540.794","LAUNCH_DATE":"2022-01-19","OBJECT_NAME":"STARLINK-3175","TIME_SYSTEM":"UTC","OBJECT_ID":"2022-005AN","CENTER_NAME":"EARTH","COUNTRY_CODE":"US","REF_FRAME":"TEME","EPHEMERIS_TYPE":"0","TLE_LINE2":"2 51140  53.2170  83.9977 0001510  93.6162 266.5003 15.08838823 66480","CLASSIFICATION_TYPE":"U","PERIOD":"95.438","FILE":"3875726","DECAY_DATE":null,"EPOCH":"2023-03-30T21:48:40.892832"},{"EPOCH":"2023-03-30T10:14:29.332032","DECAY_DATE":null,"FILE":"3875726","PERIOD":"95.438","CLASSIFICATION_TYPE":"U","TLE_LINE2":"2 51141  53.2166  86.1597 0001072  98.5168 261.5945 15.08836569 66410","EPHEMERIS_TYPE":"0","REF_FRAME":"TEME","COUNTRY_CODE":"US","CENTER_NAME":"EARTH","OBJECT_ID":"2022-005AP","TIME_SYSTEM":"UTC","OBJECT_NAME":"STARLINK-3179","LAUNCH_DATE":"2022-01-19","NORAD_CAT_ID":"51141","APOAPSIS":"540.497","SEMIMAJOR_AXIS":"6917.891","GP_ID":"229185291","MEAN_MOTION_DDOT":"0.0000000000000","RA_OF_ASC_NODE":"86.1597","MEAN_MOTION":"15.08836569","OBJECT_TYPE":"PAYLOAD","MEAN_ELEMENT_THEORY":"SGP4","SITE":"AFETR","INCLINATION":"53.2166","ECCENTRICITY":"0.00010720","MEAN_MOTION_DOT":"-0.00000196","RCS_SIZE":"LARGE","BSTAR":"0.00000578890000","ARG_OF_PERICENTER":"98.5168","REV_AT_EPOCH":"6641","ELEMENT_SET_NO":"999","TLE_LINE1":"1 51141U 22005AP  23089.42672838 -.00000196  00000-0  57889-5 0  9992","PERIAPSIS":"539.014","MEAN_ANOMALY":"261.5945"},{"INCLINATION":"53.2152","SITE":"AFETR","MEAN_ELEMENT_THEORY":"SGP4","RCS_SIZE":"LARGE","MEAN_MOTION_DOT":"0.00004932","ECCENTRICITY":"0.00010340","TLE_LINE1":"1 51142U 22005AQ  23089.28876049  .00004932  00000-0  32772-3 0  9990","ELEMENT_SET_NO":"999","ARG_OF_PERICENTER":"83.6575","REV_AT_EPOCH":"6652","BSTAR":"0.00032772000000","MEAN_ANOMALY":"276.4535","PERIAPSIS":"539.013","REF_FRAME":"TEME","COUNTRY_CODE":"US","EPHEMERIS_TYPE":"0","TLE_LINE2":"2 51142  53.2152  76.7808 0001034  83.6575 276.4535 15.08845447 66528","PERIOD":"95.437","CLASSIFICATION_TYPE":"U","FILE":"3875726","DECAY_DATE":null,"EPOCH":"2023-03-30T06:55:48.906336","OBJECT_NAME":"STARLINK-3369","TIME_SYSTEM":"UTC","OBJECT_ID":"2022-005AQ","CENTER_NAME":"EARTH","SEMIMAJOR_AXIS":"6917.864","APOAPSIS":"540.444","NORAD_CAT_ID":"51142","LAUNCH_DATE":"2022-01-19","OBJECT_TYPE":"PAYLOAD","MEAN_MOTION":"15.08845447","RA_OF_ASC_NODE":"76.7808","MEAN_MOTION_DDOT":"0.0000000000000","GP_ID":"229185520"},{"MEAN_ANOMALY":"273.7311","PERIAPSIS":"538.987","ELEMENT_SET_NO":"999","ARG_OF_PERICENTER":"86.3805","REV_AT_EPOCH":"6625","TLE_LINE1":"1 51143U 22005AR  23089.34484320  .00008923  00000-0  57796-3 0  9992","BSTAR":"0.00057796000000","MEAN_MOTION_DOT":"0.00008923","RCS_SIZE":"LARGE","ECCENTRICITY":"0.00010890","SITE":"AFETR","INCLINATION":"53.2143","MEAN_ELEMENT_THEORY":"SGP4","RA_OF_ASC_NODE":"96.5291","MEAN_MOTION":"15.08841622","OBJECT_TYPE":"PAYLOAD","MEAN_MOTION_DDOT":"0.0000000000000","GP_ID":"229183791","LAUNCH_DATE":"2022-01-19","SEMIMAJOR_AXIS":"6917.875","NORAD_CAT_ID":"51143","APOAPSIS":"540.494","OBJECT_ID":"2022-005AR","OBJECT_NAME":"STARLINK-3184","TIME_SYSTEM":"UTC","CENTER_NAME":"EARTH","EPHEMERIS_TYPE":"0","TLE_LINE2":"2 51143  53.2143  96.5291 0001089  86.3805 273.7311 15.08841622 66254","COUNTRY_CODE":"US","REF_FRAME":"TEME","DECAY_DATE":null,"EPOCH":"2023-03-30T08:16:34.452480","PERIOD":"95.437","CLASSIFICATION_TYPE":"U","FILE":"3875726"},{"CENTER_NAME":"EARTH","OBJECT_ID":"2022-005AS","TIME_SYSTEM":"UTC","OBJECT_NAME":"STARLINK-3185","EPOCH":"2023-03-30T08:44:23.738496","DECAY_DATE":null,"FILE":"3875726","PERIOD":"95.438","CLASSIFICATION_TYPE":"U","TLE_LINE2":"2 51144  53.2168  86.4438 0001600 110.6682 249.4481 15.08840020 66402","EPHEMERIS_TYPE":"0","COUNTRY_CODE":"US","REF_FRAME":"TEME","GP_ID":"229184541","MEAN_MOTION_DDOT":"0.0000000000000","MEAN_MOTION":"15.08840020","RA_OF_ASC_NODE":"86.4438","OBJECT_TYPE":"PAYLOAD","LAUNCH_DATE":"2022-01-19","NORAD_CAT_ID":"51144","APOAPSIS":"540.852","SEMIMAJOR_AXIS":"6917.880","ECCENTRICITY":"0.00016000","MEAN_MOTION_DOT":"0.00001283","RCS_SIZE":"LARGE","MEAN_ELEMENT_THEORY":"SGP4","SITE":"AFETR","INCLINATION":"53.2168","PERIAPSIS":"538.638","MEAN_ANOMALY":"249.4481","BSTAR":"0.00009866300000","REV_AT_EPOCH":"6640","ARG_OF_PERICENTER":"110.6682","ELEMENT_SET_NO":"999","TLE_LINE1":"1 51144U 22005AS  23089.36416364  .00001283  00000-0  98663-4 0  9999"},{"TLE_LINE1":"1 51145U 22005AT  23089.40739999  .00010607  00000-0  68332-3 0  9996","ELEMENT_SET_NO":"999","REV_AT_EPOCH":"6626","ARG_OF_PERICENTER":"95.2915","BSTAR":"0.00068332000000","MEAN_ANOMALY":"264.8216","PERIAPSIS":"538.864","INCLINATION":"53.2149","SITE":"AFETR","MEAN_ELEMENT_THEORY":"SGP4","RCS_SIZE":"LARGE","MEAN_MOTION_DOT":"0.00010607","ECCENTRICITY":"0.00012210","SEMIMAJOR_AXIS":"6917.844","NORAD_CAT_ID":"51145","APOAPSIS":"540.554","LAUNCH_DATE":"2022-01-19","OBJECT_TYPE":"PAYLOAD","RA_OF_ASC_NODE":"96.2467","MEAN_MOTION":"15.08851865","MEAN_MOTION_DDOT":"0.0000000000000","GP_ID":"229184793","REF_FRAME":"TEME","COUNTRY_CODE":"US","EPHEMERIS_TYPE":"0","TLE_LINE2":"2 51145  53.2149  96.2467 0001221  95.2915 264.8216 15.08851865 66269","PERIOD":"95.437","CLASSIFICATION_TYPE":"U","FILE":"3875726","DECAY_DATE":null,"EPOCH":"2023-03-30T09:46:39.359136","OBJECT_NAME":"STARLINK-3365","TIME_SYSTEM":"UTC","OBJECT_ID":"2022-005AT","CENTER_NAME":"EARTH"},{"CLASSIFICATION_TYPE":"U","PERIOD":"95.437","FILE":"3875726","DECAY_DATE":null,"EPOCH":"2023-03-30T12:05:45.942144","COUNTRY_CODE":"US","REF_FRAME":"TEME","EPHEMERIS_TYPE":"0","TLE_LINE2":"2 51146  53.2168  85.8135 0001499  90.4976 269.6188 15.08843884 66418","CENTER_NAME":"EARTH","OBJECT_NAME":"STARLINK-3354","TIME_SYSTEM":"UTC","OBJECT_ID":"2022-005AU","SEMIMAJOR_AXIS":"6917.869","NORAD_CAT_ID":"51146","APOAPSIS":"540.771","LAUNCH_DATE":"2022-01-19","MEAN_MOTION_DDOT":"0.0000000000000","GP_ID":"229185021","OBJECT_TYPE":"PAYLOAD","MEAN_MOTION":"15.08843884","RA_OF_ASC_NODE":"85.8135","MEAN_ELEMENT_THEORY":"SGP4","INCLINATION":"53.2168","SITE":"AFETR","ECCENTRICITY":"0.00014990","RCS_SIZE":"LARGE","MEAN_MOTION_DOT":"0.00001562","BSTAR":"0.00011618000000","TLE_LINE1":"1 51146U 22005AU  23089.50400396  .00001562  00000-0  11618-3 0  9999","ELEMENT_SET_NO":"999","REV_AT_EPOCH":"6641","ARG_OF_PERICENTER":"90.4976","PERIAPSIS":"538.697","MEAN_ANOMALY":"269.6188"},{"CENTER_NAME":"EARTH","TIME_SYSTEM":"UTC","OBJECT_NAME":"STARLINK-3352","OBJECT_ID":"2022-005AV","FILE":"3875726","PERIOD":"95.438","CLASSIFICATION_TYPE":"U","EPOCH":"2023-03-30T06:46:29.394624","DECAY_DATE":null,"COUNTRY_CODE":"US","REF_FRAME":"TEME","TLE_LINE2":"2 51147  53.2161  96.8097 0001054  89.9612 270.1501 15.08836686 66247","EPHEMERIS_TYPE":"0","GP_ID":"229184291","MEAN_MOTION_DDOT":"0.0000000000000","OBJECT_TYPE":"PAYLOAD","RA_OF_ASC_NODE":"96.8097","MEAN_MOTION":"15.08836686","APOAPSIS":"540.485","NORAD_CAT_ID":"51147","SEMIMAJOR_AXIS":"6917.891","LAUNCH_DATE":"2022-01-19","ECCENTRICITY":"0.00010540","RCS_SIZE":"LARGE","MEAN_MOTION_DOT":"0.00000641","MEAN_ELEMENT_THEORY":"SGP4","INCLINATION":"53.2161","SITE":"AFETR","PERIAPSIS":"539.026","MEAN_ANOMALY":"270.1501","BSTAR":"0.00005832900000","TLE_LINE1":"1 51147U 22005AV  23089.28228466  .00000641  00000-0  58329-4 0  9999","ARG_OF_PERICENTER":"89.9612","REV_AT_EPOCH":"6624","ELEMENT_SET_NO":"999"},{"MEAN_MOTION_DOT":"0.00014407","RCS_SIZE":"LARGE","ECCENTRICITY":"0.00011410","SITE":"AFETR","INCLINATION":"53.2152","MEAN_ELEMENT_THEORY":"SGP4","MEAN_ANOMALY":"268.0875","PERIAPSIS":"538.899","ARG_OF_PERICENTER":"92.0248","REV_AT_EPOCH":"6625","ELEMENT_SET_NO":"999","TLE_LINE1":"1 51148U 22005AW  23089.33844040  .00014407  00000-0  92095-3 0  9990","BSTAR":"0.00092095000000","OBJECT_ID":"2022-005AW","TIME_SYSTEM":"UTC","OBJECT_NAME":"STARLINK-3359","CENTER_NAME":"EARTH","TLE_LINE2":"2 51148  53.2152  96.5672 0001141  92.0248 268.0875 15.08858592 66252","EPHEMERIS_TYPE":"0","REF_FRAME":"TEME","COUNTRY_CODE":"US","EPOCH":"2023-03-30T08:07:21.250560","DECAY_DATE":null,"FILE":"3875726","PERIOD":"95.436","CLASSIFICATION_TYPE":"U","MEAN_MOTION":"15.08858592","RA_OF_ASC_NODE":"96.5672","OBJECT_TYPE":"PAYLOAD","GP_ID":"229184042","MEAN_MOTION_DDOT":"0.0000000000000","LAUNCH_DATE":"2022-01-19","NORAD_CAT_ID":"51148","APOAPSIS":"540.478","SEMIMAJOR_AXIS":"6917.824"}];
